0 GOKTURK 2
1 39030U 12073A   13282.50219995  .00000220  00000-0  50603-4 0  9086
2 39030 098.1268 176.9318 0016871 063.8748 296.4181 14.64461302 43150
0 GOKTURK 2
1 39030U 12073A   13282.84382606  .00000226  00000-0  51591-4 0  9097
2 39030 098.1268 177.2691 0016874 062.8267 297.4657 14.64461556 43202
0 GOKTURK 2
1 39030U 12073A   13283.18545183  .00000243  00000-0  54878-4 0  9108
2 39030 098.1269 177.6064 0016880 061.8037 298.4874 14.64461921 43255
0 GOKTURK 2
1 39030U 12073A   13283.32210208  .00000242  00000-0  54638-4 0  9115
2 39030 098.1269 177.7414 0016856 061.4579 298.8320 14.64461979 43270
0 GOKTURK 2
1 39030U 12073A   13283.66372808  .00000236  00000-0  53515-4 0  9113
2 39030 098.1269 178.0788 0016853 060.4268 299.8619 14.64462122 43328
0 GOKTURK 2
1 39030U 12073A   13283.80037828  .00000240  00000-0  54284-4 0  9129
2 39030 098.1268 178.2137 0016852 060.0820 300.2059 14.64462250 43345
0 GOKTURK 2
1 39030U 12073A   13284.14200363  .00000263  00000-0  58664-4 0  9135
2 39030 098.1269 178.5512 0016856 059.0965 301.1904 14.64462736 43391
0 GOKTURK 2
1 39030U 12073A   13284.48362921  .00000254  00000-0  56863-4 0  9141
2 39030 098.1270 178.8885 0016835 058.1809 302.1034 14.64462847 43447
0 GOKTURK 2
1 39030U 12073A   13285.50850502  .00000279  00000-0  61645-4 0  9176
2 39030 098.1272 179.9006 0016815 055.2323 305.0459 14.64463802 43594
0 GOKTURK 2
1 39030U 12073A   13285.85013017  .00000287  00000-0  63140-4 0  9188
2 39030 098.1271 180.2379 0016792 054.2125 306.0636 14.64464126 43648
0 GOKTURK 2
1 39030U 12073A   13286.12343034  .00000307  00000-0  67000-4 0  9197
2 39030 098.1271 180.5078 0016799 053.3672 306.9085 14.64464523 43683
0 GOKTURK 2
1 39030U 12073A   13286.46505542  .00000308  00000-0  67107-4 0  9209
2 39030 098.1272 180.8453 0016794 052.3757 307.8969 14.64464736 43735
0 GOKTURK 2
1 39030U 12073A   13286.80668022  .00000319  00000-0  69181-4 0  9217
2 39030 098.1271 181.1826 0016762 051.3065 308.9638 14.64465127 43783
0 GOKTURK 2
1 39030U 12073A   13287.14830509  .00000342  00000-0  73540-4 0  9227
2 39030 098.1272 181.5200 0016796 050.2113 310.0573 14.64465608 43835
0 GOKTURK 2
1 39030U 12073A   13287.48993006  .00000327  00000-0  70762-4 0  9233
2 39030 098.1270 181.8573 0016798 049.1691 311.0959 14.64465688 43881
0 GOKTURK 2
1 39030U 12073A   13287.83155485  .00000330  00000-0  71343-4 0  9244
2 39030 098.1268 182.1944 0016755 048.1510 312.1121 14.64466004 43938
0 GOKTURK 2
1 39030U 12073A   13288.17317948  .00000350  00000-0  75050-4 0  9258
2 39030 098.1270 182.5320 0016798 047.0737 313.1873 14.64466448 43981
0 GOKTURK 2
1 39030U 12073A   13288.51480430  .00000332  00000-0  71721-4 0  9265
2 39030 098.1270 182.8694 0016763 046.1035 314.1540 14.64466496 44033
0 GOKTURK 2
1 39030U 12073A   13288.85642912  .00000334  00000-0  72025-4 0  9278
2 39030 098.1268 183.2066 0016749 045.1002 315.1561 14.64466777 44086
0 GOKTURK 2
1 39030U 12073A   13289.12972871  .00000347  00000-0  74553-4 0  9282
2 39030 098.1270 183.4766 0016772 044.3017 315.9531 14.64467116 44129
0 GOKTURK 2
1 39030U 12073A   13289.47135315  .00000329  00000-0  71142-4 0  9296
2 39030 098.1268 183.8140 0016751 043.4008 316.8496 14.64467169 44176
0 GOKTURK 2
1 39030U 12073A   13289.81297760  .00000335  00000-0  72187-4 0  9306
2 39030 098.1266 184.1512 0016719 042.3905 317.8585 14.64467520 44226
0 GOKTURK 2
1 39030U 12073A   13290.15460183  .00000347  00000-0  74414-4 0  9315
2 39030 098.1268 184.4889 0016698 041.4554 318.7920 14.64467925 44271
0 GOKTURK 2
1 39030U 12073A   13290.29125140  .00000341  00000-0  73333-4 0  9325
2 39030 098.1268 184.6238 0016668 041.1277 319.1173 14.64467948 44299
0 GOKTURK 2
1 39030U 12073A   13290.70120068  .00000334  00000-0  72061-4 0  9335
2 39030 098.1267 185.0285 0016664 039.8796 320.3631 14.64468226 44351
0 GOKTURK 2
1 39030U 12073A   13290.83785030  .00000331  00000-0  71417-4 0  9347
2 39030 098.1266 185.1634 0016637 039.5351 320.7063 14.64468304 44375
0 GOKTURK 2
1 39030U 12073A   13291.17947435  .00000344  00000-0  73927-4 0  9357
2 39030 098.1268 185.5008 0016638 038.5146 321.7247 14.64468703 44422
0 GOKTURK 2
1 39030U 12073A   13291.52109844  .00000334  00000-0  72079-4 0  9367
2 39030 098.1268 185.8382 0016619 037.5194 322.7163 14.64468854 44471
0 GOKTURK 2
1 39030U 12073A   13291.86272237  .00000342  00000-0  73594-4 0  9374
2 39030 098.1267 186.1753 0016606 036.4145 323.8190 14.64469232 44525
0 GOKTURK 2
1 39030U 12073A   13292.13602126  .00000354  00000-0  75792-4 0  9385
2 39030 098.1269 186.4455 0016591 035.6634 324.5679 14.64469577 44562
0 GOKTURK 2
1 39030U 12073A   13292.47764497  .00000357  00000-0  76444-4 0  9391
2 39030 098.1268 186.7828 0016564 034.6188 325.6096 14.64469905 44617
0 GOKTURK 2
1 39030U 12073A   13292.81926840  .00000365  00000-0  77877-4 0  9403
2 39030 098.1269 187.1201 0016568 033.4722 326.7527 14.64470298 44666
0 GOKTURK 2
1 39030U 12073A   13293.16089193  .00000382  00000-0  81119-4 0  9417
2 39030 098.1269 187.4576 0016561 032.4554 327.7674 14.64470767 44710
0 GOKTURK 2
1 39030U 12073A   13293.50251531  .00000380  00000-0  80628-4 0  9425
2 39030 098.1269 187.7947 0016556 031.4026 328.8158 14.64471018 44766
0 GOKTURK 2
1 39030U 12073A   13293.84413867  .00000392  00000-0  82919-4 0  9433
2 39030 098.1269 188.1321 0016545 030.3213 329.8949 14.64471463 44810
0 GOKTURK 2
1 39030U 12073A   13294.18576197  .00000408  00000-0  86016-4 0  9448
2 39030 098.1270 188.4695 0016545 029.3166 330.8976 14.64471940 44861
0 GOKTURK 2
1 39030U 12073A   13294.52738532  .00000392  00000-0  82896-4 0  9454
2 39030 098.1270 188.8067 0016514 028.3546 331.8546 14.64472008 44911
0 GOKTURK 2
1 39030U 12073A   13294.80068361  .00000409  00000-0  86224-4 0  9460
2 39030 098.1268 189.0768 0016462 027.5408 332.6667 14.64472468 44956
0 GOKTURK 2
1 39030U 12073A   13295.14230668  .00000425  00000-0  89211-4 0  9477
2 39030 098.1269 189.4143 0016470 026.5251 333.6802 14.64472939 45004
0 GOKTURK 2
1 39030U 12073A   13295.48392955  .00000419  00000-0  88061-4 0  9488
2 39030 098.1268 189.7512 0016415 025.6154 334.5852 14.64473165 45059
0 GOKTURK 2
1 39030U 12073A   13295.82555237  .00000424  00000-0  89046-4 0  9491
2 39030 098.1266 190.0885 0016391 024.5501 335.6478 14.64473573 45107
0 GOKTURK 2
1 39030U 12073A   13296.16717515  .00000442  00000-0  92318-4 0  9506
2 39030 098.1267 190.4259 0016372 023.5516 336.6442 14.64474074 45155
